SPACEMOBILE-008         
1 69589U 26139A   26196.15283431 -.00000015  00000+0  16116-4 0  9994
2 69589  52.9948 135.5996 0005064  56.4295 303.7179 15.12801933  4210
SPACEMOBILE-009         
1 69590U 26139B   26196.15479389  .00000032  00000+0  18841-4 0  9990
2 69590  52.9939 135.6063 0005305  52.2602 307.8869 15.12695262  4219
SPACEMOBILE-010         
1 69591U 26139C   26196.15790242  .00000189  00000+0  27781-4 0  9991
2 69591  52.9945 135.6285 0005235  44.2238 315.9170 15.12527561  4223
